NORAD_CAT_ID,OBJECT_NAME,OBJECT_TYPE,EPOCH,MEAN_MOTION,ECCENTRICITY,INCLINATION,RA_OF_ASC_NODE,ARG_OF_PERICENTER,MEAN_ANOMALY,BSTAR,MEAN_MOTION_DOT,MEAN_MOTION_DDOT,TLE_LINE0,TLE_LINE1,TLE_LINE2,SEMIMAJOR_AXIS,PERIOD,APOGEE,PERIGEE,DECAYED
51104.0,STARLINK-3366,PAYLOAD,2023-05-14 13:46:29,15.08807263,0.0001629,53.2179,233.4932,74.3453,285.7719,0.00099115,0.00015507,0.0,0 STARLINK-3366,1 51104U 22005A   23134.57395202  .00015507  00000-0  99115-3 0  9992,2 51104  53.2179 233.4932 0001629  74.3453 285.7719 15.08807263 73368,6917.98,95.44,540.972,538.719,0.0
51104.0,STARLINK-3366,PAYLOAD,2023-05-14 15:21:53,15.0878224,0.0001614,53.2179,233.1955,80.9467,279.1707,0.0015555,0.00024515,0.0,0 STARLINK-3366,1 51104U 22005A   23134.64020662  .00024515  00000-0  15555-2 0  9999,2 51104  53.2179 233.1955 0001614  80.9467 279.1707 15.08782240 73374,6918.057,95.441,541.039,538.805,0.0
51104.0,STARLINK-3366,PAYLOAD,2023-05-14 23:18:46,15.08831867,0.0001289,53.2178,231.7076,103.9868,256.1267,-6.8667e-05,-1.38e-05,0.0,0 STARLINK-3366,1 51104U 22005A   23134.97137647 -.00001380  00000-0 -68667-4 0  9998,2 51104  53.2178 231.7076 0001289 103.9868 256.1267 15.08831867 74546,6917.905,95.438,540.662,538.879,0.0
51104.0,STARLINK-3366,PAYLOAD,2023-05-15 12:01:51,15.0884146,0.0001147,53.2171,229.3264,98.8525,261.2597,1.5923e-05,-3.4e-07,0.0,0 STARLINK-3366,1 51104U 22005A   23135.50129300 -.00000034  00000-0  15923-4 0  9996,2 51104  53.2171 229.3264 0001147  98.8525 261.2597 15.08841460 73504,6917.876,95.437,540.534,538.947,0.0
51104.0,STARLINK-3366,PAYLOAD,2023-05-15 13:37:14,15.08843101,0.0001086,53.2165,229.0285,93.1175,266.9942,4.3968e-05,4.12e-06,0.0,0 STARLINK-3366,1 51104U 22005A   23135.56753232  .00000412  00000-0  43968-4 0  9998,2 51104  53.2165 229.0285 0001086  93.1175 266.9942 15.08843101 74633,6917.871,95.437,540.487,538.985,0.0
51104.0,STARLINK-3366,PAYLOAD,2023-05-16 11:52:39,15.08837475,0.0001094,53.216,224.8646,85.6428,274.469,0.00012952,1.774e-05,0.0,0 STARLINK-3366,1 51104U 22005A   23136.49489840  .00001774  00000-0  12952-3 0  9992,2 51104  53.2160 224.8646 0001094  85.6428 274.4690 15.08837475 74774,6917.888,95.438,540.51,538.996,0.0
51104.0,STARLINK-3366,PAYLOAD,2023-05-16 13:28:02,15.0883938,0.0001099,53.216,224.5672,87.4123,272.6995,0.0001615,2.283e-05,0.0,0 STARLINK-3366,1 51104U 22005A   23136.56113781  .00002283  00000-0  16150-3 0  9998,2 51104  53.2160 224.5672 0001099  87.4123 272.6995 15.08839380 73669,6917.882,95.438,540.508,538.987,0.0
51104.0,STARLINK-3366,PAYLOAD,2023-05-17 13:18:49,15.08847055,0.0001162,53.2164,220.1088,84.6174,275.4951,0.00017329,2.472e-05,0.0,0 STARLINK-3366,1 51104U 22005A   23137.55473469  .00002472  00000-0  17329-3 0  9999,2 51104  53.2164 220.1088 0001162  84.6174 275.4951 15.08847055 74934,6917.859,95.437,540.528,538.92,0.0
51104.0,STARLINK-3366,PAYLOAD,2023-05-17 22:51:08,15.08841339,0.0001492,53.2163,218.3271,62.2921,297.8222,0.00011107,1.48e-05,0.0,0 STARLINK-3366,1 51104U 22005A   23137.95217951  .00001480  00000-0  11107-3 0  9991,2 51104  53.2163 218.3271 0001492  62.2921 297.8222 15.08841339 74998,6917.876,95.437,540.773,538.709,0.0
51104.0,STARLINK-3366,PAYLOAD,2023-05-18 11:34:13,15.08834728,0.0001108,53.2162,215.9452,83.9343,276.1775,-1.5897e-06,-3.13e-06,0.0,0 STARLINK-3366,1 51104U 22005A   23138.48210553 -.00000313  00000-0 -15897-5 0  9999,2 51104  53.2162 215.9452 0001108  83.9343 276.1775 15.08834728 75070,6917.897,95.438,540.528,538.995,0.0
51104.0,STARLINK-3366,PAYLOAD,2023-05-18 16:20:23,15.08837635,0.000114,53.2162,215.053,82.894,277.2182,1.9403e-05,2.1e-07,0.0,0 STARLINK-3366,1 51104U 22005A   23138.68082298  .00000021  00000-0  19403-4 0  9994,2 51104  53.2162 215.0530 0001140  82.8940 277.2182 15.08837635 73987,6917.888,95.438,540.541,538.964,0.0
51104.0,STARLINK-3366,PAYLOAD,2023-05-18 22:41:55,15.08840232,0.0001098,53.2167,213.8622,87.5625,272.5493,4.1594e-05,3.74e-06,0.0,0 STARLINK-3366,1 51104U 22005A   23138.94578032  .00000374  00000-0  41594-4 0  9996,2 51104  53.2167 213.8622 0001098  87.5625 272.5493 15.08840232 75144,6917.88,95.438,540.504,538.985,0.0
51104.0,STARLINK-3366,PAYLOAD,2023-05-19 09:49:36,15.08847453,0.0001115,53.2157,211.7815,77.8977,282.214,0.00012456,1.695e-05,0.0,0 STARLINK-3366,1 51104U 22005A   23139.40945273  .00001695  00000-0  12456-3 0  9994,2 51104  53.2157 211.7815 0001115  77.8977 282.2140 15.08847453 75213,6917.858,95.437,540.494,538.951,0.0
51104.0,STARLINK-3366,PAYLOAD,2023-05-19 14:35:45,15.08850859,0.0001159,53.2157,210.8892,74.5605,285.5515,9.3039e-05,1.194e-05,0.0,0 STARLINK-3366,1 51104U 22005A   23139.60817039  .00001194  00000-0  93039-4 0  9995,2 51104  53.2157 210.8892 0001159  74.5605 285.5515 15.08850859 74123,6917.847,95.437,540.514,538.91,0.0
51104.0,STARLINK-3366,PAYLOAD,2023-05-20 09:40:23,15.08841033,0.0001133,53.2158,207.3199,74.5689,285.5428,0.00016148,2.283e-05,0.0,0 STARLINK-3366,1 51104U 22005A   23140.40305485  .00002283  00000-0  16148-3 0  9997,2 51104  53.2158 207.3199 0001133  74.5689 285.5428 15.08841033 75363,6917.877,95.437,540.526,538.958,0.0
51104.0,STARLINK-3366,PAYLOAD,2023-05-20 14:26:32,15.08851114,0.0001136,53.2162,206.4267,74.8972,285.2146,0.00019049,2.746e-05,0.0,0 STARLINK-3366,1 51104U 22005A   23140.60176802  .00002746  00000-0  19049-3 0  9995,2 51104  53.2162 206.4267 0001136  74.8972 285.2146 15.08851114 75393,6917.846,95.437,540.497,538.926,0.0
51104.0,STARLINK-3366,PAYLOAD,2023-05-20 20:48:05,15.08848446,0.0001227,53.2155,205.2358,73.852,286.2607,0.00014086,1.955e-05,0.0,0 STARLINK-3366,1 51104U 22005A   23140.86673111  .00001955  00000-0  14086-3 0  9995,2 51104  53.2155 205.2358 0001227  73.8520 286.2607 15.08848446 74310,6917.855,95.437,540.568,538.871,0.0
51104.0,STARLINK-3366,PAYLOAD,2023-05-21 14:17:19,15.08845433,0.0001205,53.217,201.9647,86.6035,273.5095,1.9599e-05,2.4e-07,0.0,0 STARLINK-3366,1 51104U 22005A   23141.59537007  .00000024  00000-0  19599-4 0  9990,2 51104  53.2170 201.9647 0001205  86.6035 273.5095 15.08845433 74425,6917.864,95.437,540.562,538.895,0.0
51104.0,STARLINK-3366,PAYLOAD,2023-05-22 03:00:26,15.08828059,0.0001497,53.2163,199.5803,136.5699,223.5411,-0.00010409,-1.944e-05,0.0,0 STARLINK-3366,1 51104U 22005A   23142.12530495 -.00001944  00000-0 -10409-3 0  9998,2 51104  53.2163 199.5803 0001497 136.5699 223.5411 15.08828059 75622,6917.917,95.438,540.818,538.746,0.0
51104.0,STARLINK-3366,PAYLOAD,2023-05-22 10:57:21,15.08840134,0.0002106,53.2163,198.0989,92.2576,267.8657,-1.6755e-05,-5.55e-06,0.0,0 STARLINK-3366,1 51104U 22005A   23142.45649794 -.00000555  00000-0 -16755-4 0  9995,2 51104  53.2163 198.0989 0002106  92.2576 267.8657 15.08840134 75677,6917.88,95.438,541.202,538.288,0.0
51104.0,STARLINK-3366,PAYLOAD,2023-05-22 20:29:40,15.08833921,0.0001088,53.2167,196.3186,98.8676,261.2439,-1.1708e-05,-4.74e-06,0.0,0 STARLINK-3366,1 51104U 22005A   23142.85394278 -.00000474  00000-0 -11708-4 0  9996,2 51104  53.2167 196.3186 0001088  98.8676 261.2439 15.08833921 74617,6917.899,95.438,540.517,539.011,0.0
51104.0,STARLINK-3366,PAYLOAD,2023-05-23 10:48:08,15.08843535,9.15e-05,53.2156,193.6408,85.3328,274.7768,-6.1934e-06,-3.86e-06,0.0,0 STARLINK-3366,1 51104U 22005A   23143.45009952 -.00000386  00000-0 -61934-5 0  9994,2 51104  53.2156 193.6408 0000915  85.3328 274.7768 15.08843535 75825,6917.87,95.437,540.368,539.102,0.0
51104.0,STARLINK-3366,PAYLOAD,2023-05-23 20:20:27,15.08841043,0.0001036,53.2163,191.858,108.3092,251.8013,5.5507e-05,5.96e-06,0.0,0 STARLINK-3366,1 51104U 22005A   23143.84753965  .00000596  00000-0  55507-4 0  9996,2 51104  53.2163 191.8580 0001036 108.3092 251.8013 15.08841043 74766,6917.877,95.437,540.459,539.026,0.0
51104.0,STARLINK-3366,PAYLOAD,2023-05-24 09:03:32,15.08835783,0.0001,53.2165,189.4788,93.1856,266.9251,0.00017232,2.455e-05,0.0,0 STARLINK-3366,1 51104U 22005A   23144.37746467  .00002455  00000-0  17232-3 0  9992,2 51104  53.2165 189.4788 0001000  93.1856 266.9251 15.08835783 75969,6917.893,95.438,540.45,539.066,0.0
51104.0,STARLINK-3366,PAYLOAD,2023-05-26 11:55:53,15.08843422,0.0001146,53.2165,179.9631,82.8794,277.2328,9.0087e-05,1.146e-05,0.0,0 STARLINK-3366,1 51104U 22005A   23146.49714401  .00001146  00000-0  90087-4 0  9996,2 51104  53.2165 179.9631 0001146  82.8794 277.2328 15.08843422 75168,6917.87,95.437,540.528,538.942,0.0
51104.0,STARLINK-3366,PAYLOAD,2023-05-27 08:35:54,15.08841174,0.0001013,53.2158,176.0958,86.9777,273.1331,7.2744e-05,8.7e-06,0.0,0 STARLINK-3366,1 51104U 22005A   23147.35826483  .00000870  00000-0  72744-4 0  9999,2 51104  53.2158 176.0958 0001013  86.9777 273.1331 15.08841174 75294,6917.877,95.437,540.443,539.041,0.0
51104.0,STARLINK-3366,PAYLOAD,2023-05-27 22:54:22,15.08839763,9.93e-05,53.2153,173.4192,85.9871,274.1235,4.449e-05,4.2e-06,0.0,0 STARLINK-3366,1 51104U 22005A   23147.95442640  .00000420  00000-0  44490-4 0  9992,2 51104  53.2153 173.4192 0000993  85.9871 274.1235 15.08839763 76500,6917.881,95.438,540.433,539.059,0.0
51104.0,STARLINK-3366,PAYLOAD,2023-05-28 05:15:55,15.08838657,9.92e-05,53.2153,172.2296,85.6291,274.4815,3.2233e-05,2.25e-06,0.0,0 STARLINK-3366,1 51104U 22005A   23148.21938777  .00000225  00000-0  32233-4 0  9998,2 51104  53.2153 172.2296 0000992  85.6291 274.4815 15.08838657 75422,6917.884,95.438,540.436,539.063,0.0
51104.0,STARLINK-3366,PAYLOAD,2023-05-28 06:51:18,15.08839178,0.0001001,53.2153,171.9323,85.5549,274.5557,3.3997e-05,2.53e-06,0.0,0 STARLINK-3366,1 51104U 22005A   23148.28562730  .00000253  00000-0  33997-4 0  9996,2 51104  53.2153 171.9323 0001001  85.5549 274.5557 15.08839178 75430,6917.883,95.438,540.44,539.055,0.0
51104.0,STARLINK-3366,PAYLOAD,2023-05-29 06:42:05,15.08840559,0.0001012,53.2156,167.4738,82.4865,277.6242,5.2716e-05,5.51e-06,0.0,0 STARLINK-3366,1 51104U 22005A   23149.27922622  .00000551  00000-0  52716-4 0  9997,2 51104  53.2156 167.4738 0001012  82.4865 277.6242 15.08840559 76703,6917.879,95.438,540.444,539.044,0.0
